{
  "type": "FeatureCollection",
  "features": [
    {
      "type": "Feature",
      "properties": {
        "norad_id": 40069,
        "name": "METEOR-M 2",
        "group": "weather",
        "lat": -28.549166321934674,
        "lon": -16.522223037324572,
        "alt_km": 830.4834438067955,
        "timestamp": "2025-12-27T19:21:58.420693+00:00",
        "meta_object_name": "METEOR-M 2",
        "meta_object_id": "2014-037A",
        "meta_epoch": "2025-12-27T12:44:39.289920",
        "meta_mean_motion": 14.21391833,
        "meta_eccentricity": 0.0005726,
        "meta_inclination": 98.4924,
        "meta_ra_of_asc_node": 338.5497,
        "meta_arg_of_pericenter": 164.0565,
        "meta_mean_anomaly": 196.0794,
        "meta_ephemeris_type": 0,
        "meta_classification_type": "U",
        "meta_norad_cat_id": 40069,
        "meta_element_set_no": 999,
        "meta_rev_at_epoch": 59493,
        "meta_bstar": 2.8862e-05,
        "meta_mean_motion_dot": 2.1e-07,
        "meta_mean_motion_ddot": 0,
        "tle_line1": "1 40069U 14037A   25361.53101030  .00000021  00000+0  28862-4 0  9996",
        "tle_line2": "2 40069  98.4924 338.5497 0005726 164.0565 196.0794 14.21391833594934"
      },
      "geometry": {
        "type": "Point",
        "coordinates": [
          -16.522223037324572,
          -28.549166321934674
        ]
      }
    },
    {
      "type": "Feature",
      "properties": {
        "norad_id": 40267,
        "name": "HIMAWARI-8",
        "group": "weather",
        "lat": -0.0213448639804298,
        "lon": 167.66928427126888,
        "alt_km": 35789.698921028925,
        "timestamp": "2025-12-27T19:21:58.420704+00:00",
        "meta_object_name": "HIMAWARI-8",
        "meta_object_id": "2014-060A",
        "meta_epoch": "2025-12-26T08:33:59.245344",
        "meta_mean_motion": 1.0027063,
        "meta_eccentricity": 0.000101,
        "meta_inclination": 0.0427,
        "meta_ra_of_asc_node": 196.506,
        "meta_arg_of_pericenter": 108.6661,
        "meta_mean_anomaly": 59.0936,
        "meta_ephemeris_type": 0,
        "meta_classification_type": "U",
        "meta_norad_cat_id": 40267,
        "meta_element_set_no": 999,
        "meta_rev_at_epoch": 4102,
        "meta_bstar": 0,
        "meta_mean_motion_dot": -2.54e-06,
        "meta_mean_motion_ddot": 0,
        "tle_line1": "1 40267U 14060A   25360.35693571 -.00000254  00000+0  00000+0 0  9995",
        "tle_line2": "2 40267   0.0427 196.5060 0001010 108.6661  59.0936  1.00270630 41029"
      },
      "geometry": {
        "type": "Point",
        "coordinates": [
          167.66928427126888,
          -0.0213448639804298
        ]
      }
    },
    {
      "type": "Feature",
      "properties": {
        "norad_id": 40367,
        "name": "FENGYUN 2G",
        "group": "weather",
        "lat": 4.08238948846851,
        "lon": 126.21609984870575,
        "alt_km": 35786.7840333008,
        "timestamp": "2025-12-27T19:21:58.420715+00:00",
        "meta_object_name": "FENGYUN 2G",
        "meta_object_id": "2014-090A",
        "meta_epoch": "2025-12-27T01:29:24.780768",
        "meta_mean_motion": 1.00281225,
        "meta_eccentricity": 0.00018247,
        "meta_inclination": 5.2014,
        "meta_ra_of_asc_node": 74.9206,
        "meta_arg_of_pericenter": 170.6218,
        "meta_mean_anomaly": 331.9129,
        "meta_ephemeris_type": 0,
        "meta_classification_type": "U",
        "meta_norad_cat_id": 40367,
        "meta_element_set_no": 999,
        "meta_rev_at_epoch": 4027,
        "meta_bstar": 0,
        "meta_mean_motion_dot": -2.81e-06,
        "meta_mean_motion_ddot": 0,
        "tle_line1": "1 40367U 14090A   25361.06209237 -.00000281  00000+0  00000+0 0  9990",
        "tle_line2": "2 40367   5.2014  74.9206 0001824 170.6218 331.9129  1.00281225 40274"
      },
      "geometry": {
        "type": "Point",
        "coordinates": [
          126.21609984870575,
          4.08238948846851
        ]
      }
    },
    {
      "type": "Feature",
      "properties": {
        "norad_id": 40732,
        "name": "METEOSAT-11 (MSG-4)",
        "group": "weather",
        "lat": -1.6129500796637755,
        "lon": 36.23610650975498,
        "alt_km": 35788.902208591506,
        "timestamp": "2025-12-27T19:21:58.420726+00:00",
        "meta_object_name": "METEOSAT-11 (MSG-4)",
        "meta_object_id": "2015-034A",
        "meta_epoch": "2025-12-27T04:29:09.250368",
        "meta_mean_motion": 1.00272015,
        "meta_eccentricity": 6.53e-05,
        "meta_inclination": 2.7726,
        "meta_ra_of_asc_node": 71.9621,
        "meta_arg_of_pericenter": 136.4187,
        "meta_mean_anomaly": 324.0135,
        "meta_ephemeris_type": 0,
        "meta_classification_type": "U",
        "meta_norad_cat_id": 40732,
        "meta_element_set_no": 999,
        "meta_rev_at_epoch": 549,
        "meta_bstar": 0,
        "meta_mean_motion_dot": 8.3e-07,
        "meta_mean_motion_ddot": 0,
        "tle_line1": "1 40732U 15034A   25361.18691262  .00000083  00000+0  00000+0 0  9990",
        "tle_line2": "2 40732   2.7726  71.9621 0000653 136.4187 324.0135  1.00272015  5496"
      },
      "geometry": {
        "type": "Point",
        "coordinates": [
          36.23610650975498,
          -1.6129500796637755
        ]
      }
    },
    {
      "type": "Feature",
      "properties": {
        "norad_id": 41105,
        "name": "ELEKTRO-L 2",
        "group": "weather",
        "lat": -5.425364057924463,
        "lon": 12.74230253718799,
        "alt_km": 35787.655106165534,
        "timestamp": "2025-12-27T19:21:58.420737+00:00",
        "meta_object_name": "ELEKTRO-L 2",
        "meta_object_id": "2015-074A",
        "meta_epoch": "2025-12-27T09:30:32.887008",
        "meta_mean_motion": 1.00271539,
        "meta_eccentricity": 0.000372,
        "meta_inclination": 6.2602,
        "meta_ra_of_asc_node": 72.654,
        "meta_arg_of_pericenter": 207.1147,
        "meta_mean_anomaly": 304.5247,
        "meta_ephemeris_type": 0,
        "meta_classification_type": "U",
        "meta_norad_cat_id": 41105,
        "meta_element_set_no": 999,
        "meta_rev_at_epoch": 3678,
        "meta_bstar": 0,
        "meta_mean_motion_dot": -9.8e-07,
        "meta_mean_motion_ddot": 0,
        "tle_line1": "1 41105U 15074A   25361.39621397 -.00000098  00000+0  00000+0 0  9991",
        "tle_line2": "2 41105   6.2602  72.6540 0003720 207.1147 304.5247  1.00271539 36784"
      },
      "geometry": {
        "type": "Point",
        "coordinates": [
          12.74230253718799,
          -5.425364057924463
        ]
      }
    },
    {
      "type": "Feature",
      "properties": {
        "norad_id": 41752,
        "name": "INSAT-3DR",
        "group": "weather",
        "lat": 0.0274846868387001,
        "lon": 100.98245076063134,
        "alt_km": 35846.454655697,
        "timestamp": "2025-12-27T19:21:58.420748+00:00",
        "meta_object_name": "INSAT-3DR",
        "meta_object_id": "2016-054A",
        "meta_epoch": "2025-12-27T09:55:45.471936",
        "meta_mean_motion": 1.00271375,
        "meta_eccentricity": 0.0014402,
        "meta_inclination": 0.0429,
        "meta_ra_of_asc_node": 85.6495,
        "meta_arg_of_pericenter": 186.5991,
        "meta_mean_anomaly": 46.8253,
        "meta_ephemeris_type": 0,
        "meta_classification_type": "U",
        "meta_norad_cat_id": 41752,
        "meta_element_set_no": 999,
        "meta_rev_at_epoch": 3409,
        "meta_bstar": 0,
        "meta_mean_motion_dot": -5.4e-07,
        "meta_mean_motion_ddot": 0,
        "tle_line1": "1 41752U 16054A   25361.41372074 -.00000054  00000+0  00000+0 0  9998",
        "tle_line2": "2 41752   0.0429  85.6495 0014402 186.5991  46.8253  1.00271375 34093"
      },
      "geometry": {
        "type": "Point",
        "coordinates": [
          100.98245076063134,
          0.0274846868387001
        ]
      }
    },
    {
      "type": "Feature",
      "properties": {
        "norad_id": 41836,
        "name": "HIMAWARI-9",
        "group": "weather",
        "lat": 0.016067732950386684,
        "lon": 167.77745151807864,
        "alt_km": 35788.54752454623,
        "timestamp": "2025-12-27T19:21:58.420759+00:00",
        "meta_object_name": "HIMAWARI-9",
        "meta_object_id": "2016-064A",
        "meta_epoch": "2025-12-27T06:49:10.839072",
        "meta_mean_motion": 1.00267784,
        "meta_eccentricity": 9.49e-05,
        "meta_inclination": 0.0135,
        "meta_ra_of_asc_node": 82.1147,
        "meta_arg_of_pericenter": 194.3858,
        "meta_mean_anomaly": 62.5887,
        "meta_ephemeris_type": 0,
        "meta_classification_type": "U",
        "meta_norad_cat_id": 41836,
        "meta_element_set_no": 999,
        "meta_rev_at_epoch": 3348,
        "meta_bstar": 0,
        "meta_mean_motion_dot": -2.53e-06,
        "meta_mean_motion_ddot": 0,
        "tle_line1": "1 41836U 16064A   25361.28415323 -.00000253  00000+0  00000+0 0  9993",
        "tle_line2": "2 41836   0.0135  82.1147 0000949 194.3858  62.5887  1.00267784 33485"
      },
      "geometry": {
        "type": "Point",
        "coordinates": [
          167.77745151807864,
          0.016067732950386684
        ]
      }
    }
  ]
}